{
  "type": "FeatureCollection",
  "features": [
    {
      "type": "Feature",
      "properties": {
        "norad_id": 38091,
        "name": "BEIDOU-2 G5 (C05)",
        "group": "gnss",
        "lat": 2.9355186933428117,
        "lon": 140.10303776349252,
        "alt_km": 35838.88491341417,
        "timestamp": "2025-12-17T23:38:07.095884+00:00",
        "meta_object_name": "BEIDOU-2 G5 (C05)",
        "meta_object_id": "2012-008A",
        "meta_epoch": "2025-12-17T17:01:53.754816",
        "meta_mean_motion": 1.0026798,
        "meta_eccentricity": 0.0013014,
        "meta_inclination": 3.1209,
        "meta_ra_of_asc_node": 70.6969,
        "meta_arg_of_pericenter": 231.4196,
        "meta_mean_anomaly": 98.7456,
        "meta_ephemeris_type": 0,
        "meta_classification_type": "U",
        "meta_norad_cat_id": 38091,
        "meta_element_set_no": 999,
        "meta_rev_at_epoch": 5054,
        "meta_bstar": 0,
        "meta_mean_motion_dot": 7.9e-07,
        "meta_mean_motion_ddot": 0,
        "tle_line1": "1 38091U 12008A   25351.70964994  .00000079  00000+0  00000+0 0  9990",
        "tle_line2": "2 38091   3.1209  70.6969 0013014 231.4196  98.7456  1.00267980 50546"
      },
      "geometry": {
        "type": "Point",
        "coordinates": [
          140.10303776349252,
          2.9355186933428117
        ]
      }
    },
    {
      "type": "Feature",
      "properties": {
        "norad_id": 38250,
        "name": "BEIDOU-2 M3 (C11)",
        "group": "gnss",
        "lat": -10.397753619542113,
        "lon": 138.08984497649624,
        "alt_km": 21520.45137637359,
        "timestamp": "2025-12-17T23:38:07.095899+00:00",
        "meta_object_name": "BEIDOU-2 M3 (C11)",
        "meta_object_id": "2012-018A",
        "meta_epoch": "2025-12-17T03:50:10.442976",
        "meta_mean_motion": 1.86229975,
        "meta_eccentricity": 0.00242741,
        "meta_inclination": 55.916,
        "meta_ra_of_asc_node": 311.0085,
        "meta_arg_of_pericenter": 274.6832,
        "meta_mean_anomaly": 85.0247,
        "meta_ephemeris_type": 0,
        "meta_classification_type": "U",
        "meta_norad_cat_id": 38250,
        "meta_element_set_no": 999,
        "meta_rev_at_epoch": 9255,
        "meta_bstar": 0,
        "meta_mean_motion_dot": -9.2e-07,
        "meta_mean_motion_ddot": 0,
        "tle_line1": "1 38250U 12018A   25351.15984309 -.00000092  00000+0  00000+0 0  9995",
        "tle_line2": "2 38250  55.9160 311.0085 0024274 274.6832  85.0247  1.86229975 92551"
      },
      "geometry": {
        "type": "Point",
        "coordinates": [
          138.08984497649624,
          -10.397753619542113
        ]
      }
    },
    {
      "type": "Feature",
      "properties": {
        "norad_id": 38251,
        "name": "BEIDOU-2 M4 (C12)",
        "group": "gnss",
        "lat": -44.78936137123628,
        "lon": 172.57329163704932,
        "alt_km": 21499.913939799764,
        "timestamp": "2025-12-17T23:38:07.095911+00:00",
        "meta_object_name": "BEIDOU-2 M4 (C12)",
        "meta_object_id": "2012-018B",
        "meta_epoch": "2025-12-17T02:12:20.700000",
        "meta_mean_motion": 1.86229502,
        "meta_eccentricity": 0.00154788,
        "meta_inclination": 55.8177,
        "meta_ra_of_asc_node": 310.2391,
        "meta_arg_of_pericenter": 277.6479,
        "meta_mean_anomaly": 82.1616,
        "meta_ephemeris_type": 0,
        "meta_classification_type": "U",
        "meta_norad_cat_id": 38251,
        "meta_element_set_no": 999,
        "meta_rev_at_epoch": 9255,
        "meta_bstar": 0,
        "meta_mean_motion_dot": -9.2e-07,
        "meta_mean_motion_ddot": 0,
        "tle_line1": "1 38251U 12018B   25351.09190625 -.00000092  00000+0  00000+0 0  9999",
        "tle_line2": "2 38251  55.8177 310.2391 0015478 277.6479  82.1616  1.86229502 92550"
      },
      "geometry": {
        "type": "Point",
        "coordinates": [
          172.57329163704932,
          -44.78936137123628
        ]
      }
    },
    {
      "type": "Feature",
      "properties": {
        "norad_id": 38652,
        "name": "SES-5 (EGNOS/PRN 136)",
        "group": "gnss",
        "lat": 0.05840408123751371,
        "lon": 86.35651553016184,
        "alt_km": 35794.077949514714,
        "timestamp": "2025-12-17T23:38:07.095923+00:00",
        "meta_object_name": "SES-5 (EGNOS/PRN 136)",
        "meta_object_id": "2012-036A",
        "meta_epoch": "2025-12-17T13:20:59.908416",
        "meta_mean_motion": 1.00272168,
        "meta_eccentricity": 0.00019205,
        "meta_inclination": 0.0574,
        "meta_ra_of_asc_node": 305.7555,
        "meta_arg_of_pericenter": 320.1954,
        "meta_mean_anomaly": 25.7148,
        "meta_ephemeris_type": 0,
        "meta_classification_type": "U",
        "meta_norad_cat_id": 38652,
        "meta_element_set_no": 999,
        "meta_rev_at_epoch": 4263,
        "meta_bstar": 0,
        "meta_mean_motion_dot": 5.9e-07,
        "meta_mean_motion_ddot": 0,
        "tle_line1": "1 38652U 12036A   25351.55624894  .00000059  00000+0  00000+0 0  9997",
        "tle_line2": "2 38652   0.0574 305.7555 0001920 320.1954  25.7148  1.00272168 42637"
      },
      "geometry": {
        "type": "Point",
        "coordinates": [
          86.35651553016184,
          0.05840408123751371
        ]
      }
    },
    {
      "type": "Feature",
      "properties": {
        "norad_id": 38775,
        "name": "BEIDOU-2 M6 (C14)",
        "group": "gnss",
        "lat": 52.63708353632773,
        "lon": 129.35716315368967,
        "alt_km": 21521.29835473875,
        "timestamp": "2025-12-17T23:38:07.095935+00:00",
        "meta_object_name": "BEIDOU-2 M6 (C14)",
        "meta_object_id": "2012-050B",
        "meta_epoch": "2025-12-16T06:22:47.654112",
        "meta_mean_motion": 1.86230757,
        "meta_eccentricity": 0.00113185,
        "meta_inclination": 56.3814,
        "meta_ra_of_asc_node": 68.9504,
        "meta_arg_of_pericenter": 343.5807,
        "meta_mean_anomaly": 16.4038,
        "meta_ephemeris_type": 0,
        "meta_classification_type": "U",
        "meta_norad_cat_id": 38775,
        "meta_element_set_no": 999,
        "meta_rev_at_epoch": 8990,
        "meta_bstar": 0,
        "meta_mean_motion_dot": -8e-07,
        "meta_mean_motion_ddot": 0,
        "tle_line1": "1 38775U 12050B   25350.26582933 -.00000080  00000+0  00000+0 0  9998",
        "tle_line2": "2 38775  56.3814  68.9504 0011318 343.5807  16.4038  1.86230757 89902"
      },
      "geometry": {
        "type": "Point",
        "coordinates": [
          129.35716315368967,
          52.63708353632773
        ]
      }
    },
    {
      "type": "Feature",
      "properties": {
        "norad_id": 38779,
        "name": "GSAT-10 (GAGAN/PRN 128)",
        "group": "gnss",
        "lat": -0.07411794636410014,
        "lon": 164.41153391876887,
        "alt_km": 35777.75273727377,
        "timestamp": "2025-12-17T23:38:07.095947+00:00",
        "meta_object_name": "GSAT-10 (GAGAN/PRN 128)",
        "meta_object_id": "2012-051B",
        "meta_epoch": "2025-12-17T13:43:12.779616",
        "meta_mean_motion": 1.00272657,
        "meta_eccentricity": 0.00024853,
        "meta_inclination": 0.0791,
        "meta_ra_of_asc_node": 265.7445,
        "meta_arg_of_pericenter": 219.6941,
        "meta_mean_anomaly": 249.8322,
        "meta_ephemeris_type": 0,
        "meta_classification_type": "U",
        "meta_norad_cat_id": 38779,
        "meta_element_set_no": 999,
        "meta_rev_at_epoch": 4827,
        "meta_bstar": 0,
        "meta_mean_motion_dot": -1.4e-06,
        "meta_mean_motion_ddot": 0,
        "tle_line1": "1 38779U 12051B   25351.57167569 -.00000140  00000+0  00000+0 0  9999",
        "tle_line2": "2 38779   0.0791 265.7445 0002485 219.6941 249.8322  1.00272657 48278"
      },
      "geometry": {
        "type": "Point",
        "coordinates": [
          164.41153391876887,
          -0.07411794636410014
        ]
      }
    },
    {
      "type": "Feature",
      "properties": {
        "norad_id": 38833,
        "name": "GPS BIIF-3  (PRN 24)",
        "group": "gnss",
        "lat": 49.04947801658179,
        "lon": -87.38998800531701,
        "alt_km": 19847.298988230712,
        "timestamp": "2025-12-17T23:38:07.095958+00:00",
        "meta_object_name": "GPS BIIF-3  (PRN 24)",
        "meta_object_id": "2012-053A",
        "meta_epoch": "2025-12-16T20:09:13.627584",
        "meta_mean_motion": 2.00565075,
        "meta_eccentricity": 0.01759464,
        "meta_inclination": 53.5585,
        "meta_ra_of_asc_node": 151.0706,
        "meta_arg_of_pericenter": 64.0575,
        "meta_mean_anomaly": 297.7402,
        "meta_ephemeris_type": 0,
        "meta_classification_type": "U",
        "meta_norad_cat_id": 38833,
        "meta_element_set_no": 999,
        "meta_rev_at_epoch": 9578,
        "meta_bstar": 0,
        "meta_mean_motion_dot": 7.2e-07,
        "meta_mean_motion_ddot": 0,
        "tle_line1": "1 38833U 12053A   25350.83974106  .00000072  00000+0  00000+0 0  9996",
        "tle_line2": "2 38833  53.5585 151.0706 0175946  64.0575 297.7402  2.00565075 95787"
      },
      "geometry": {
        "type": "Point",
        "coordinates": [
          -87.38998800531701,
          49.04947801658179
        ]
      }
    }
  ]
}